NORAD_CAT_ID,OBJECT_NAME,OBJECT_TYPE,EPOCH,MEAN_MOTION,ECCENTRICITY,INCLINATION,RA_OF_ASC_NODE,ARG_OF_PERICENTER,MEAN_ANOMALY,BSTAR,MEAN_MOTION_DOT,MEAN_MOTION_DDOT,TLE_LINE0,TLE_LINE1,TLE_LINE2,SEMIMAJOR_AXIS,PERIOD,APOGEE,PERIGEE,DECAYED
54202.0,STARLINK-5205,PAYLOAD,2023-07-27 14:08:40,15.08837462,0.0001313,53.2184,325.9083,88.2249,271.8893,3.6925e-05,3e-06,0.0,0 STARLINK-5205,1 54202U 22141AX  23208.58935854  .00000300  00000-0  36925-4 0  9997,2 54202  53.2184 325.9083 0001313  88.2249 271.8893 15.08837462 41668,6917.888,95.438,540.661,538.845,0.0
54202.0,STARLINK-5205,PAYLOAD,2023-07-28 09:13:18,15.08838961,0.0001154,53.2178,322.3391,81.1389,278.9734,-2.6232e-05,-7.05e-06,0.0,0 STARLINK-5205,1 54202U 22141AX  23209.38424057 -.00000705  00000-0 -26232-4 0  9995,2 54202  53.2178 322.3391 0001154  81.1389 278.9734 15.08838961 42011,6917.884,95.438,540.547,538.95,0.0
54202.0,STARLINK-5205,PAYLOAD,2023-07-28 12:24:04,15.08843147,0.0001183,53.2174,321.7437,83.2286,276.8841,-8.4939e-06,-4.23e-06,0.0,0 STARLINK-5205,1 54202U 22141AX  23209.51671771 -.00000423  00000-0 -84939-5 0  9993,2 54202  53.2174 321.7437 0001183  83.2286 276.8841 15.08843147 41806,6917.871,95.437,540.554,538.917,0.0
54202.0,STARLINK-5205,PAYLOAD,2023-07-28 18:45:36,15.08848164,0.0001165,53.2176,320.5543,82.6742,277.4382,5.1258e-05,5.28e-06,0.0,0 STARLINK-5205,1 54202U 22141AX  23209.78167240  .00000528  00000-0  51258-4 0  9994,2 54202  53.2176 320.5543 0001165  82.6742 277.4382 15.08848164 42074,6917.855,95.437,540.526,538.915,0.0
54202.0,STARLINK-5205,PAYLOAD,2023-07-30 02:33:19,15.0883357,0.0001179,53.2168,314.607,86.7476,273.3651,-2.1593e-05,-6.31e-06,0.0,0 STARLINK-5205,1 54202U 22141AX  23211.10648088 -.00000631  00000-0 -21593-4 0  9993,2 54202  53.2168 314.6070 0001179  86.7476 273.3651 15.08833570 42279,6917.9,95.438,540.581,538.949,0.0
54202.0,STARLINK-5205,PAYLOAD,2023-07-30 10:30:15,15.08843992,0.0001108,53.2169,313.1199,85.7042,274.4077,0.00019443,2.808e-05,0.0,0 STARLINK-5205,1 54202U 22141AX  23211.43767612  .00002808  00000-0  19443-3 0  9990,2 54202  53.2169 313.1199 0001108  85.7042 274.4077 15.08843992 42325,6917.868,95.437,540.5,538.967,0.0
54202.0,STARLINK-5205,PAYLOAD,2023-07-31 18:17:57,15.08867614,9.55e-05,53.2168,307.1732,92.4349,267.6752,0.0012132,0.00019087,0.0,0 STARLINK-5205,1 54202U 22141AX  23212.76247170  .00019087  00000-0  12132-2 0  9993,2 54202  53.2168 307.1732 0000955  92.4349 267.6752 15.08867614 42527,6917.796,95.436,540.322,539.0,0.0
54202.0,STARLINK-5205,PAYLOAD,2023-08-01 11:47:12,15.0884258,9.12e-05,53.2163,303.9031,79.9951,280.1144,0.0010135,0.0001588,0.0,0 STARLINK-5205,1 54202U 22141AX  23213.49111755  .00015880  00000-0  10135-2 0  9991,2 54202  53.2163 303.9031 0000912  79.9951 280.1144 15.08842580 42632,6917.873,95.437,540.368,539.107,0.0
54202.0,STARLINK-5205,PAYLOAD,2023-08-02 08:27:13,15.08847888,0.0001137,53.2157,300.0375,90.0321,270.0801,0.0011445,0.00017978,0.0,0 STARLINK-5205,1 54202U 22141AX  23214.35224140  .00017978  00000-0  11445-2 0  9995,2 54202  53.2157 300.0375 0001137  90.0321 270.0801 15.08847888 42767,6917.856,95.437,540.508,538.935,0.0
54202.0,STARLINK-5205,PAYLOAD,2023-08-02 14:48:46,15.08848884,9.88e-05,53.2156,298.8478,77.9632,282.1471,0.0007151,0.00011114,0.0,0 STARLINK-5205,1 54202U 22141AX  23214.61720005  .00011114  00000-0  71510-3 0  9991,2 54202  53.2156 298.8478 0000988  77.9632 282.1471 15.08848884 42805,6917.853,95.437,540.402,539.035,0.0
54202.0,STARLINK-5205,PAYLOAD,2023-08-03 09:53:23,15.08848587,0.0001066,53.2149,295.2796,72.7434,287.3675,0.00030317,4.542e-05,0.0,0 STARLINK-5205,1 54202U 22141AX  23215.41207771  .00004542  00000-0  30317-3 0  9997,2 54202  53.2149 295.2796 0001066  72.7434 287.3675 15.08848587 42928,6917.854,95.437,540.457,538.982,0.0
54202.0,STARLINK-5205,PAYLOAD,2023-08-03 14:39:32,15.08857167,0.0001059,53.2152,294.3873,73.0043,287.1065,0.00048281,7.408e-05,0.0,0 STARLINK-5205,1 54202U 22141AX  23215.61079448  .00007408  00000-0  48281-3 0  9990,2 54202  53.2152 294.3873 0001059  73.0043 287.1065 15.08857167 42958,6917.828,95.436,540.426,538.96,0.0
54202.0,STARLINK-5205,PAYLOAD,2023-08-04 09:44:11,15.0883297,9.98e-05,53.2152,290.8193,74.604,285.5063,-8.1722e-05,-1.588e-05,0.0,0 STARLINK-5205,1 54202U 22141AX  23216.40568308 -.00001588  00000-0 -81722-4 0  9999,2 54202  53.2152 290.8193 0000998  74.6040 285.5063 15.08832970 43078,6917.902,95.438,540.457,539.076,0.0
54202.0,STARLINK-5205,PAYLOAD,2023-08-05 11:10:20,15.0885671,0.0001072,53.2152,286.0605,89.1656,270.9459,0.00061113,9.456e-05,0.0,0 STARLINK-5205,1 54202U 22141AX  23217.46551931  .00009456  00000-0  61113-3 0  9991,2 54202  53.2152 286.0605 0001072  89.1656 270.9459 15.08856710 43234,6917.829,95.436,540.436,538.953,0.0
54202.0,STARLINK-5205,PAYLOAD,2023-08-06 11:01:08,15.0884272,9.84e-05,53.2151,281.5995,96.0611,264.0493,0.0001895,2.73e-05,0.0,0 STARLINK-5205,1 54202U 22141AX  23218.45912133  .00002730  00000-0  18950-3 0  9995,2 54202  53.2151 281.5995 0000984  96.0611 264.0493 15.08842720 43388,6917.872,95.437,540.418,539.056,0.0
54202.0,STARLINK-5205,PAYLOAD,2023-08-07 10:51:55,15.08837327,0.000102,53.2156,277.1388,98.8279,261.2828,6.7006e-05,7.79e-06,0.0,0 STARLINK-5205,1 54202U 22141AX  23219.45272584  .00000779  00000-0  67006-4 0  9993,2 54202  53.2156 277.1388 0001020  98.8279 261.2828 15.08837327 43537,6917.889,95.438,540.459,539.048,0.0
54202.0,STARLINK-5205,PAYLOAD,2023-08-08 12:18:05,15.08848654,0.0001009,53.2152,272.381,101.6195,258.491,0.00033761,5.091e-05,0.0,0 STARLINK-5205,1 54202U 22141AX  23220.51256409  .00005091  00000-0  33761-3 0  9992,2 54202  53.2152 272.3810 0001009 101.6195 258.4910 15.08848654 43699,6917.854,95.437,540.417,539.021,0.0
54202.0,STARLINK-5205,PAYLOAD,2023-08-09 02:36:34,15.08840991,0.0001302,53.2156,269.7055,86.9734,273.1407,0.00016964,2.413e-05,0.0,0 STARLINK-5205,1 54202U 22141AX  23221.10872858  .00002413  00000-0  16964-3 0  9991,2 54202  53.2156 269.7055 0001302  86.9734 273.1407 15.08840991 43785,6917.877,95.437,540.643,538.842,0.0
54202.0,STARLINK-5205,PAYLOAD,2023-08-09 08:58:06,15.08833729,0.0001011,53.2154,268.5158,96.7266,263.3841,-7.6543e-06,-4.1e-06,0.0,0 STARLINK-5205,1 54202U 22141AX  23221.37369186 -.00000410  00000-0 -76543-5 0  9993,2 54202  53.2154 268.5158 0001011  96.7266 263.3841 15.08833729 43829,6917.9,95.438,540.464,539.065,0.0
54202.0,STARLINK-5205,PAYLOAD,2023-08-10 08:48:53,15.08843107,0.0001028,53.2154,264.055,82.743,277.3679,7.8429e-05,9.61e-06,0.0,0 STARLINK-5205,1 54202U 22141AX  23222.36728843  .00000961  00000-0  78429-4 0  9995,2 54202  53.2154 264.0550 0001028  82.7430 277.3679 15.08843107 43973,6917.871,95.437,540.447,539.025,0.0
54202.0,STARLINK-5205,PAYLOAD,2023-08-11 08:39:40,15.08841158,9.17e-05,53.2153,259.5923,82.3007,277.8089,0.00012622,1.722e-05,0.0,0 STARLINK-5205,1 54202U 22141AX  23223.36089045  .00001722  00000-0  12622-3 0  9998,2 54202  53.2153 259.5923 0000917  82.3007 277.8089 15.08841158 44129,6917.877,95.437,540.376,539.107,0.0
54202.0,STARLINK-5205,PAYLOAD,2023-08-12 13:16:37,15.08847909,9.88e-05,53.2143,254.2409,77.7101,282.4002,9.3875e-05,1.207e-05,0.0,0 STARLINK-5205,1 54202U 22141AX  23224.55320714  .00001207  00000-0  93875-4 0  9999,2 54202  53.2143 254.2409 0000988  77.7101 282.4002 15.08847909 44307,6917.856,95.437,540.405,539.038,0.0
54202.0,STARLINK-5205,PAYLOAD,2023-08-13 01:59:42,15.08837812,0.0001058,53.2141,251.8623,77.4466,282.6644,7.1344e-05,8.48e-06,0.0,0 STARLINK-5205,1 54202U 22141AX  23225.08313260  .00000848  00000-0  71344-4 0  9993,2 54202  53.2141 251.8623 0001058  77.4466 282.6644 15.08837812 44380,6917.887,95.438,540.484,539.02,0.0
54202.0,STARLINK-5205,PAYLOAD,2023-08-14 05:01:16,15.08837158,0.0001137,53.2157,246.8069,79.2306,280.8814,2.1944e-05,6.1e-07,0.0,0 STARLINK-5205,1 54202U 22141AX  23226.20921550  .00000061  00000-0  21944-4 0  9993,2 54202  53.2157 246.8069 0001137  79.2306 280.8814 15.08837158 44557,6917.889,95.438,540.541,538.968,0.0
54202.0,STARLINK-5205,PAYLOAD,2023-08-15 06:27:26,15.08842563,0.0001124,53.2161,242.0492,86.9302,273.1819,8.9506e-05,1.137e-05,0.0,0 STARLINK-5205,1 54202U 22141AX  23227.26905125  .00001137  00000-0  89506-4 0  9993,2 54202  53.2161 242.0492 0001124  86.9302 273.1819 15.08842563 44711,6917.873,95.437,540.515,538.96,0.0
54202.0,STARLINK-5205,PAYLOAD,2023-08-15 17:35:08,15.08834892,0.0001109,53.2163,239.9674,87.5948,272.5171,7.6722e-05,9.33e-06,0.0,0 STARLINK-5205,1 54202U 22141AX  23227.73273629  .00000933  00000-0  76722-4 0  9991,2 54202  53.2163 239.9674 0001109  87.5948 272.5171 15.08834892 44783,6917.896,95.438,540.528,538.994,0.0
54202.0,STARLINK-5205,PAYLOAD,2023-08-17 09:19:46,15.08844055,0.0001144,53.216,232.5329,88.6994,271.4129,5.5885e-05,6.02e-06,0.0,0 STARLINK-5205,1 54202U 22141AX  23229.38873272  .00000602  00000-0  55885-4 0  9994,2 54202  53.2160 232.5329 0001144  88.6994 271.4129 15.08844055 45030,6917.868,95.437,540.524,538.942,0.0
54202.0,STARLINK-5205,PAYLOAD,2023-08-17 17:16:42,15.08839285,0.0001108,53.2159,231.0445,89.3703,270.7416,2.0723e-05,4.2e-07,0.0,0 STARLINK-5205,1 54202U 22141AX  23229.71993635  .00000042  00000-0  20723-4 0  9998,2 54202  53.2159 231.0445 0001108  89.3703 270.7416 15.08839285 45082,6917.883,95.438,540.514,538.981,0.0
54202.0,STARLINK-5205,PAYLOAD,2023-08-19 09:01:20,15.08841946,0.0001182,53.2161,223.6111,99.7211,260.3914,4.0582e-05,3.58e-06,0.0,0 STARLINK-5205,1 54202U 22141AX  23231.37593714  .00000358  00000-0  40582-4 0  9992,2 54202  53.2161 223.6111 0001182  99.7211 260.3914 15.08841946 45336,6917.874,95.437,540.557,538.922,0.0
54202.0,STARLINK-5205,PAYLOAD,2023-08-20 04:05:59,15.08836049,0.0001258,53.2165,220.0436,89.3457,270.7679,4.5831e-05,4.42e-06,0.0,0 STARLINK-5205,1 54202U 22141AX  23232.17082302  .00000442  00000-0  45831-4 0  9993,2 54202  53.2165 220.0436 0001258  89.3457 270.7679 15.08836049 45456,6917.892,95.438,540.628,538.887,0.0
